OBJECT_NAME,OBJECT_ID,EPOCH,MEAN_MOTION,ECCENTRICITY,INCLINATION,RA_OF_ASC_NODE,ARG_OF_PERICENTER,MEAN_ANOMALY,EPHEMERIS_TYPE,CLASSIFICATION_TYPE,NORAD_CAT_ID,ELEMENT_SET_NO,REV_AT_EPOCH,BSTAR,MEAN_MOTION_DOT,MEAN_MOTION_DDOT
ONEWEB-0309,2021-075W,2026-06-15T02:45:09.038880,13.17648125,.00019407,87.9133,6.2754,102.3528,257.7821,0,U,49095,999,23330,-.2303078E-3,-.77E-6,0
ONEWEB-0310,2021-075X,2026-06-14T22:45:49.707936,13.12444778,.00018008,87.8939,351.1259,90.8672,269.2663,0,U,49096,999,23489,.29325229E-3,.118E-5,0
ONEWEB-0311,2021-075Y,2026-06-15T06:33:34.663104,13.17649934,.00022792,87.9135,6.2435,82.3741,277.7650,0,U,49097,999,23337,-.10179345E-3,-.27E-6,0
ONEWEB-0312,2021-075Z,2026-06-15T01:27:25.213536,13.17652398,.00021681,87.9132,6.2966,92.0552,268.0828,0,U,49098,999,23332,.98966441E-4,.51E-6,0
ONEWEB-0313,2021-075AA,2026-06-15T01:34:29.008128,13.17647533,.00019911,87.9129,6.3014,86.7185,273.4174,0,U,49099,999,23331,-.61604545E-4,-.11E-6,0
ONEWEB-0314,2021-075AB,2026-06-15T02:35:26.817792,13.17649152,.00022335,87.9142,6.2651,91.4795,268.6592,0,U,49100,999,23329,-.20445959E-3,-.67E-6,0
ONEWEB-0315,2021-075AC,2026-06-15T05:25:55.242912,13.12443159,.00020955,87.8947,351.0342,82.0926,278.0440,0,U,49101,999,23491,-.11658872E-2,-.407E-5,0
ONEWEB-0316,2021-075AD,2026-06-15T04:27:52.826976,13.18686885,.00019238,87.9161,335.8544,91.6264,268.5089,0,U,49102,999,23694,-.86766922E-4,-.21E-6,0
ONEWEB-0317,2021-075AE,2026-06-15T05:30:48.039552,13.12443485,.0001486,87.8948,351.0572,113.4910,246.6375,0,U,49103,999,23493,-.11490409E-2,-.401E-5,0
ONEWEB-0318,2021-075AF,2026-06-15T04:23:01.696128,13.18685910,.00020372,87.9168,335.8564,86.9055,273.2310,0,U,49104,999,23690,-.2358865E-5,.12E-6,0
ONEWEB-0319,2021-075AG,2026-06-15T02:57:18.242784,13.17648944,.00022508,87.9133,6.2788,77.2653,282.8730,0,U,49105,999,23333,-.15853565E-3,-.49E-6,0
ONEWEB-0323,2021-075AH,2026-06-15T01:24:24.605568,13.12442084,.00023177,87.8948,351.0727,82.9928,277.1464,0,U,49106,999,23427,.16807126E-3,.73E-6,0
ONEWEB-0329,2021-075AJ,2026-06-15T01:20:06.412992,13.17648615,.00020266,87.9134,6.2930,89.1929,270.9435,0,U,49107,999,23330,-.11252014E-3,-.31E-6,0
ONEWEB-0330,2021-075AK,2026-06-15T01:54:20.588544,13.17648642,.00020398,87.9137,6.3084,93.6413,266.4952,0,U,49108,999,23334,-.14785889E-3,-.45E-6,0
ONEWEB-0292,2021-083A,2026-06-14T22:57:14.782176,13.13471294,.00019321,87.8944,320.6826,91.8192,268.3159,0,U,49186,999,23063,.71975184E-3,.276E-5,0
ONEWEB-0303,2021-083B,2026-06-15T04:18:10.177344,13.18687015,.00019965,87.9164,335.8558,89.5513,270.5848,0,U,49187,999,22971,.10243256E-3,.53E-6,0
ONEWEB-0306,2021-083C,2026-06-15T00:25:04.240416,13.18687011,.00017222,87.9169,335.8757,98.8477,261.2851,0,U,49188,999,22973,.18867605E-4,.2E-6,0
ONEWEB-0307,2021-083D,2026-06-15T04:17:47.440320,13.13470268,.00019784,87.8948,320.6352,95.2821,264.8534,0,U,49189,999,23066,.59393963E-3,.23E-5,0
ONEWEB-0320,2021-083E,2026-06-15T04:32:43.493856,13.18685931,.00018214,87.9157,335.8601,93.8161,266.3179,0,U,49190,999,22971,-.8215454E-5,.1E-6,0
ONEWEB-0321,2021-083F,2026-06-15T05:33:10.478592,13.20772442,.00018028,87.9191,274.8245,107.2552,252.8779,0,U,49191,999,23657,-.26429705E-4,.2E-7,0
ONEWEB-0322,2021-083G,2026-06-15T04:11:39.703776,13.13468395,.00013709,87.8950,320.6365,99.8787,260.2497,0,U,49192,999,23065,.28041271E-3,.115E-5,0
ONEWEB-0324,2021-083H,2026-06-15T03:53:52.535904,13.18685309,.00019582,87.9170,335.8523,97.4873,262.6482,0,U,49193,999,22973,-.15068603E-3,-.46E-6,0
ONEWEB-0325,2021-083J,2026-06-15T03:58:44.319072,13.18686049,.00017949,87.9159,335.8602,90.0681,270.0657,0,U,49194,999,22974,-.75289169E-4,-.17E-6,0
ONEWEB-0326,2021-083K,2026-06-15T04:20:47.581728,13.18685272,.00020373,87.9168,335.8548,85.9319,274.2046,0,U,49195,999,22973,-.26395759E-4,.3E-7,0
ONEWEB-0327,2021-083L,2026-06-15T04:20:23.330976,13.18685009,.00019863,87.9159,335.8593,81.1802,278.9555,0,U,49196,999,22975,-.36586864E-4,-.2E-7,0
ONEWEB-0328,2021-083M,2026-06-15T03:57:03.701088,13.13470349,.00019457,87.8960,320.6114,99.3704,260.7646,0,U,49197,999,23063,-.4957644E-3,-.168E-5,0
ONEWEB-0331,2021-083N,2026-06-15T04:10:52.478400,13.18686943,.00021293,87.9169,335.8499,86.5622,273.5753,0,U,49198,999,22974,.66026768E-4,.39E-6,0
ONEWEB-0333,2021-083P,2026-06-15T03:49:44.583456,13.13470722,.00018136,87.8947,320.6390,94.8794,265.2542,0,U,49199,999,23064,-.31797897E-3,-.103E-5,0
ONEWEB-0334,2021-083Q,2026-06-15T05:57:13.190112,13.21223455,.00015505,87.9165,274.8317,114.1668,245.9628,0,U,49200,999,23653,.25523748E-1,.10473E-3,0
ONEWEB-0335,2021-083R,2026-06-15T03:42:26.016192,13.13470596,.00019892,87.8951,320.6371,93.2207,266.9150,0,U,49201,999,23065,-.93380349E-3,-.328E-5,0
